ONEWEB-0549             
1 56051U 23043F   25216.67840600  .00000073  00000+0  14535-3 0  9996
2 56051  87.9269 307.1368 0001913  91.0421 269.0932 13.21824678116415
ONEWEB-0550             
1 56052U 23043G   25216.66580801  .00000011  00000+0 -52999-5 0  9991
2 56052  87.9269 307.1330 0002124 103.3931 256.7440 13.21825820116410
ONEWEB-0551             
1 56053U 23043H   25216.68069165 -.00000015  00000+0 -74694-4 0  9999
2 56053  87.9077 322.3601 0001998  93.2319 266.9040 13.15547869114787
ONEWEB-0552             
1 56054U 23043J   25217.18936831  .00000101  00000+0  21222-3 0  9991
2 56054  87.9270 307.0381 0002182  92.5541 267.5842 13.21827059117399
ONEWEB-0553             
1 56055U 23043K   25217.18655851 -.00000017  00000+0 -78511-4 0  9994
2 56055  87.9042 291.7635 0001902 109.5676 250.5661 13.16595797118303
ONEWEB-0554             
1 56056U 23043L   25216.26194111  .00000079  00000+0  17175-3 0  9994
2 56056  87.9036 291.9743 0002270 103.0146 257.1238 13.16594909117259
ONEWEB-0555             
1 56057U 23043M   25216.90791918  .00000000  00000+0 -34786-4 0  9997
2 56057  87.9045 291.8135 0001834 114.7320 245.4002 13.16593597117343
ONEWEB-0557             
1 56058U 23043N   25216.92216237 -.00000059  00000+0 -18906-3 0  9996
2 56058  87.9037 291.8310 0002864 122.6596 237.4812 13.16594166117340
